ONEWEB-0122             
1 47268U 20100L   26001.09990087 -.00000052  00000+0 -17889-3 0  9995
2 47268  87.8927  23.8387 0001593  89.3476 270.7835 13.12446834242631
ONEWEB-0123             
1 47269U 20100M   26001.09494104 -.00000146  00000+0 -44207-3 0  9993
2 47269  87.8919  23.8645 0001797  96.3591 263.7742 13.12444423242778
ONEWEB-0124             
1 47270U 20100N   26001.08478125 -.00000396  00000+0 -11359-2 0  9997
2 47270  87.8918  23.8713 0001899  90.9911 269.1435 13.12444047242652
ONEWEB-0125             
1 47271U 20100P   26001.06277004  .00000116  00000+0  28778-3 0  9991
2 47271  87.8926  23.8403 0001997  95.7935 264.3421 13.12442596242712
ONEWEB-0126             
1 47272U 20100Q   26001.08321899 -.00000382  00000+0 -10985-2 0  9993
2 47272  87.8926  23.8598 0001657  95.3478 264.7839 13.12442100242784
ONEWEB-0127             
1 47273U 20100R   26001.12543723  .00000571  00000+0  15515-2 0  9993
2 47273  87.8920  23.8600 0001600  94.4810 265.6501 13.12440642242810
ONEWEB-0128             
1 47274U 20100S   26001.14744804 -.00000113  00000+0 -34957-3 0  9995
2 47274  87.8913  23.8713 0001699  82.6334 277.4988 13.12440418242839
ONEWEB-0129             
1 47275U 20100T   26001.12713700  .00000474  00000+0  12826-2 0  9993
2 47275  87.8927  23.8317 0000791 128.0132 232.1068 13.12441504242764
ONEWEB-0130             
1 47276U 20100U   26001.07800875 -.00000267  00000+0 -77790-3 0  9992
2 47276  87.8925  23.8362 0001639  90.6017 269.5299 13.12442437242723
ONEWEB-0131             
1 47277U 20100V   26001.15084637 -.00000198  00000+0 -58514-3 0  9998
2 47277  87.8927  23.8521 0001710  91.1165 269.0160 13.12440880242770
ONEWEB-0132             
1 47278U 20100W   26001.10341597  .00000012  00000+0 -96873-6 0  9992
2 47278  87.8921  23.8630 0001732  89.6854 270.4473 13.12442924242669
ONEWEB-0133             
1 47279U 20100X   26001.12021875  .00000518  00000+0  14045-2 0  9996
2 47279  87.8921  23.8202 0001739  82.1802 277.9524 13.12442512242823
ONEWEB-0134             
1 47280U 20100Y   26001.08987289 -.00000124  00000+0 -37947-3 0  9995
2 47280  87.8926  23.8253 0001376  77.8288 282.2995 13.12440919242798
ONEWEB-0135             
1 47281U 20100Z   26001.13730756  .00000252  00000+0  66443-3 0  9990
2 47281  87.8924  23.8528 0001571  81.7172 278.4135 13.12441527242828
ONEWEB-0136             
1 47282U 20100AA  26001.07969591 -.00000336  00000+0 -97063-3 0  9992
2 47282  87.8925  23.8341 0001380  83.6359 276.4927 13.12441823242746
ONEWEB-0137             
1 47283U 20100AB  26001.11357673  .00000428  00000+0  11541-2 0  9996
2 47283  87.8926  23.8325 0001777  94.6018 265.5314 13.12443749242652
