[{"OBJECT_NAME":"ONEWEB-0122","OBJECT_ID":"2020-100L","EPOCH":"2026-01-01T02:23:51.435168","MEAN_MOTION":13.12446834,"ECCENTRICITY":0.00015935,"INCLINATION":87.8927,"RA_OF_ASC_NODE":23.8387,"ARG_OF_PERICENTER":89.3476,"MEAN_ANOMALY":270.7835,"EPHEMERIS_TYPE":0,"CLASSIFICATION_TYPE":"U","NORAD_CAT_ID":47268,"ELEMENT_SET_NO":999,"REV_AT_EPOCH":24263,"BSTAR":-0.00017888992,"MEAN_MOTION_DOT":-5.2e-7,"MEAN_MOTION_DDOT":0},{"OBJECT_NAME":"ONEWEB-0123","OBJECT_ID":"2020-100M","EPOCH":"2026-01-01T02:16:42.905856","MEAN_MOTION":13.12444423,"ECCENTRICITY":0.00017977,"INCLINATION":87.8919,"RA_OF_ASC_NODE":23.8645,"ARG_OF_PERICENTER":96.3591,"MEAN_ANOMALY":263.7742,"EPHEMERIS_TYPE":0,"CLASSIFICATION_TYPE":"U","NORAD_CAT_ID":47269,"ELEMENT_SET_NO":999,"REV_AT_EPOCH":24277,"BSTAR":-0.00044206629,"MEAN_MOTION_DOT":-1.46e-6,"MEAN_MOTION_DDOT":0},{"OBJECT_NAME":"ONEWEB-0124","OBJECT_ID":"2020-100N","EPOCH":"2026-01-01T02:02:05.100000","MEAN_MOTION":13.12444047,"ECCENTRICITY":0.0001899,"INCLINATION":87.8918,"RA_OF_ASC_NODE":23.8713,"ARG_OF_PERICENTER":90.9911,"MEAN_ANOMALY":269.1435,"EPHEMERIS_TYPE":0,"CLASSIFICATION_TYPE":"U","NORAD_CAT_ID":47270,"ELEMENT_SET_NO":999,"REV_AT_EPOCH":24265,"BSTAR":-0.0011358632,"MEAN_MOTION_DOT":-3.96e-6,"MEAN_MOTION_DDOT":0},{"OBJECT_NAME":"ONEWEB-0125","OBJECT_ID":"2020-100P","EPOCH":"2026-01-01T01:30:23.331456","MEAN_MOTION":13.12442596,"ECCENTRICITY":0.00019976,"INCLINATION":87.8926,"RA_OF_ASC_NODE":23.8403,"ARG_OF_PERICENTER":95.7935,"MEAN_ANOMALY":264.3421,"EPHEMERIS_TYPE":0,"CLASSIFICATION_TYPE":"U","NORAD_CAT_ID":47271,"ELEMENT_SET_NO":999,"REV_AT_EPOCH":24271,"BSTAR":0.00028778084,"MEAN_MOTION_DOT":1.16e-6,"MEAN_MOTION_DDOT":0},{"OBJECT_NAME":"ONEWEB-0126","OBJECT_ID":"2020-100Q","EPOCH":"2026-01-01T01:59:50.120736","MEAN_MOTION":13.124421,"ECCENTRICITY":0.00016578,"INCLINATION":87.8926,"RA_OF_ASC_NODE":23.8598,"ARG_OF_PERICENTER":95.3478,"MEAN_ANOMALY":264.7839,"EPHEMERIS_TYPE":0,"CLASSIFICATION_TYPE":"U","NORAD_CAT_ID":47272,"ELEMENT_SET_NO":999,"REV_AT_EPOCH":24278,"BSTAR":-0.0010984807,"MEAN_MOTION_DOT":-3.82e-6,"MEAN_MOTION_DDOT":0},{"OBJECT_NAME":"ONEWEB-0127","OBJECT_ID":"2020-100R","EPOCH":"2026-01-01T03:00:37.776672","MEAN_MOTION":13.12440642,"ECCENTRICITY":0.00016007,"INCLINATION":87.892,"RA_OF_ASC_NODE":23.86,"ARG_OF_PERICENTER":94.481,"MEAN_ANOMALY":265.6501,"EPHEMERIS_TYPE":0,"CLASSIFICATION_TYPE":"U","NORAD_CAT_ID":47273,"ELEMENT_SET_NO":999,"REV_AT_EPOCH":24281,"BSTAR":0.0015515222,"MEAN_MOTION_DOT":5.71e-6,"MEAN_MOTION_DDOT":0},{"OBJECT_NAME":"ONEWEB-0128","OBJECT_ID":"2020-100S","EPOCH":"2026-01-01T03:32:19.510656","MEAN_MOTION":13.12440418,"ECCENTRICITY":0.00016996,"INCLINATION":87.8913,"RA_OF_ASC_NODE":23.8713,"ARG_OF_PERICENTER":82.6334,"MEAN_ANOMALY":277.4988,"EPHEMERIS_TYPE":0,"CLASSIFICATION_TYPE":"U","NORAD_CAT_ID":47274,"ELEMENT_SET_NO":999,"REV_AT_EPOCH":24283,"BSTAR":-0.00034956695,"MEAN_MOTION_DOT":-1.13e-6,"MEAN_MOTION_DDOT":0},{"OBJECT_NAME":"ONEWEB-0129","OBJECT_ID":"2020-100T","EPOCH":"2026-01-01T03:03:04.636800","MEAN_MOTION":13.12441504,"ECCENTRICITY":7.916e-5,"INCLINATION":87.8927,"RA_OF_ASC_NODE":23.8317,"ARG_OF_PERICENTER":128.0132,"MEAN_ANOMALY":232.1068,"EPHEMERIS_TYPE":0,"CLASSIFICATION_TYPE":"U","NORAD_CAT_ID":47275,"ELEMENT_SET_NO":999,"REV_AT_EPOCH":24276,"BSTAR":0.0012825708,"MEAN_MOTION_DOT":4.74e-6,"MEAN_MOTION_DDOT":0},{"OBJECT_NAME":"ONEWEB-0130","OBJECT_ID":"2020-100U","EPOCH":"2026-01-01T01:52:19.956000","MEAN_MOTION":13.12442437,"ECCENTRICITY":0.00016392,"INCLINATION":87.8925,"RA_OF_ASC_NODE":23.8362,"ARG_OF_PERICENTER":90.6017,"MEAN_ANOMALY":269.5299,"EPHEMERIS_TYPE":0,"CLASSIFICATION_TYPE":"U","NORAD_CAT_ID":47276,"ELEMENT_SET_NO":999,"REV_AT_EPOCH":24272,"BSTAR":-0.00077789989,"MEAN_MOTION_DOT":-2.67e-6,"MEAN_MOTION_DDOT":0},{"OBJECT_NAME":"ONEWEB-0131","OBJECT_ID":"2020-100V","EPOCH":"2026-01-01T03:37:13.126368","MEAN_MOTION":13.1244088,"ECCENTRICITY":0.00017102,"INCLINATION":87.8927,"RA_OF_ASC_NODE":23.8521,"ARG_OF_PERICENTER":91.1165,"MEAN_ANOMALY":269.016,"EPHEMERIS_TYPE":0,"CLASSIFICATION_TYPE":"U","NORAD_CAT_ID":47277,"ELEMENT_SET_NO":999,"REV_AT_EPOCH":24277,"BSTAR":-0.00058514397,"MEAN_MOTION_DOT":-1.98e-6,"MEAN_MOTION_DDOT":0},{"OBJECT_NAME":"ONEWEB-0132","OBJECT_ID":"2020-100W","EPOCH":"2026-01-01T02:28:55.139808","MEAN_MOTION":13.12442924,"ECCENTRICITY":0.00017329,"INCLINATION":87.8921,"RA_OF_ASC_NODE":23.863,"ARG_OF_PERICENTER":89.6854,"MEAN_ANOMALY":270.4473,"EPHEMERIS_TYPE":0,"CLASSIFICATION_TYPE":"U","NORAD_CAT_ID":47278,"ELEMENT_SET_NO":999,"REV_AT_EPOCH":24266,"BSTAR":-9.68729e-7,"MEAN_MOTION_DOT":1.2e-7,"MEAN_MOTION_DDOT":0},{"OBJECT_NAME":"ONEWEB-0133","OBJECT_ID":"2020-100X","EPOCH":"2026-01-01T02:53:06.900000","MEAN_MOTION":13.12442512,"ECCENTRICITY":0.00017393,"INCLINATION":87.8921,"RA_OF_ASC_NODE":23.8202,"ARG_OF_PERICENTER":82.1802,"MEAN_ANOMALY":277.9524,"EPHEMERIS_TYPE":0,"CLASSIFICATION_TYPE":"U","NORAD_CAT_ID":47279,"ELEMENT_SET_NO":999,"REV_AT_EPOCH":24282,"BSTAR":0.0014044918,"MEAN_MOTION_DOT":5.18e-6,"MEAN_MOTION_DDOT":0},{"OBJECT_NAME":"ONEWEB-0134","OBJECT_ID":"2020-100Y","EPOCH":"2026-01-01T02:09:25.017696","MEAN_MOTION":13.12440919,"ECCENTRICITY":0.00013764,"INCLINATION":87.8926,"RA_OF_ASC_NODE":23.8253,"ARG_OF_PERICENTER":77.8288,"MEAN_ANOMALY":282.2995,"EPHEMERIS_TYPE":0,"CLASSIFICATION_TYPE":"U","NORAD_CAT_ID":47280,"ELEMENT_SET_NO":999,"REV_AT_EPOCH":24279,"BSTAR":-0.00037947039,"MEAN_MOTION_DOT":-1.24e-6,"MEAN_MOTION_DDOT":0},{"OBJECT_NAME":"ONEWEB-0135","OBJECT_ID":"2020-100Z","EPOCH":"2026-01-01T03:17:43.373184","MEAN_MOTION":13.12441527,"ECCENTRICITY":0.00015713,"INCLINATION":87.8924,"RA_OF_ASC_NODE":23.8528,"ARG_OF_PERICENTER":81.7172,"MEAN_ANOMALY":278.4135,"EPHEMERIS_TYPE":0,"CLASSIFICATION_TYPE":"U","NORAD_CAT_ID":47281,"ELEMENT_SET_NO":999,"REV_AT_EPOCH":24282,"BSTAR":0.00066442535,"MEAN_MOTION_DOT":2.52e-6,"MEAN_MOTION_DDOT":0},{"OBJECT_NAME":"ONEWEB-0136","OBJECT_ID":"2020-100AA","EPOCH":"2026-01-01T01:54:45.726624","MEAN_MOTION":13.12441823,"ECCENTRICITY":0.00013808,"INCLINATION":87.8925,"RA_OF_ASC_NODE":23.8341,"ARG_OF_PERICENTER":83.6359,"MEAN_ANOMALY":276.4927,"EPHEMERIS_TYPE":0,"CLASSIFICATION_TYPE":"U","NORAD_CAT_ID":47282,"ELEMENT_SET_NO":999,"REV_AT_EPOCH":24274,"BSTAR":-0.00097063041,"MEAN_MOTION_DOT":-3.36e-6,"MEAN_MOTION_DDOT":0},{"OBJECT_NAME":"ONEWEB-0137","OBJECT_ID":"2020-100AB","EPOCH":"2026-01-01T02:43:33.029472","MEAN_MOTION":13.12443749,"ECCENTRICITY":0.00017778,"INCLINATION":87.8926,"RA_OF_ASC_NODE":23.8325,"ARG_OF_PERICENTER":94.6018,"MEAN_ANOMALY":265.5314,"EPHEMERIS_TYPE":0,"CLASSIFICATION_TYPE":"U","NORAD_CAT_ID":47283,"ELEMENT_SET_NO":999,"REV_AT_EPOCH":24265,"BSTAR":0.0011540989,"MEAN_MOTION_DOT":4.28e-6,"MEAN_MOTION_DDOT":0}]
